{
    "links": {
        "self": "http://www.neowsapp.com/rest/v1/neo/3989406?api_key=iIulBulltgU6a56xZRHN4H3l9WmuAYTsLGpBGhQ2"
    },
    "id": "3989406",
    "neo_reference_id": "3989406",
    "name": "(2020 CL)",
    "designation": "2020 CL",
    "nasa_jpl_url": "http://ssd.jpl.nasa.gov/sbdb.cgi?sstr=3989406",
    "absolute_magnitude_h": 27.381,
    "estimated_diameter": {
        "kilometers": {
            "estimated_diameter_min": 0.0088788144,
            "estimated_diameter_max": 0.0198536325
        },
        "meters": {
            "estimated_diameter_min": 8.8788143771,
            "estimated_diameter_max": 19.8536325069
        },
        "miles": {
            "estimated_diameter_min": 0.0055170378,
            "estimated_diameter_max": 0.0123364715
        },
        "feet": {
            "estimated_diameter_min": 29.1299693611,
            "estimated_diameter_max": 65.1365916738
        }
    },
    "is_potentially_hazardous_asteroid": false,
    "close_approach_data": [
        {
            "close_approach_date": "2020-01-27",
            "close_approach_date_full": "2020-Jan-27 21:30",
            "epoch_date_close_approach": 1580160600000,
            "relative_velocity": {
                "kilometers_per_second": "15.5608458973",
                "kilometers_per_hour": "56019.0452302681",
                "miles_per_hour": "34808.056187663"
            },
            "miss_distance": {
                "astronomical": "0.014399964",
                "lunar": "5.601585996",
                "kilometers": "2154203.94247668",
                "miles": "1338560.259990984"
            },
            "orbiting_body": "Earth"
        }
    ],
    "orbital_data": {
        "orbit_id": "1",
        "orbit_determination_date": "2020-02-02 13:42:22",
        "first_observation_date": "2020-02-01",
        "last_observation_date": "2020-02-02",
        "data_arc_in_days": 1,
        "observations_used": 17,
        "orbit_uncertainty": "8",
        "minimum_orbit_intersection": ".00865097",
        "jupiter_tisserand_invariant": "3.453",
        "epoch_osculation": "2458880.5",
        "eccentricity": ".6310366300363962",
        "semi_major_axis": "2.109948015339927",
        "inclination": "2.742869736386846",
        "ascending_node_longitude": "136.662020322056",
        "orbital_period": "1119.453503494801",
        "perihelion_distance": ".778493530187837",
        "perihelion_argument": "286.6443697839447",
        "aphelion_distance": "3.441402500492017",
        "perihelion_time": "2458835.602436186537",
        "mean_anomaly": "14.43840492024665",
        "mean_motion": ".3215854869149301",
        "equinox": "J2000",
        "orbit_class": {
            "orbit_class_type": "APO",
            "orbit_class_description": "Near-Earth asteroid orbits which cross the Earth’s orbit similar to that of 1862 Apollo",
            "orbit_class_range": "a (semi-major axis) > 1.0 AU; q (perihelion) < 1.017 AU"
        }
    },
    "is_sentry_object": false
}